[{"OBJECT_NAME":"ONEWEB-0060","OBJECT_ID":"2020-020AH","EPOCH":"2026-03-09T21:51:40.225536","MEAN_MOTION":13.11417253,"ECCENTRICITY":0.00013691,"INCLINATION":87.8862,"RA_OF_ASC_NODE":40.8046,"ARG_OF_PERICENTER":117.7657,"MEAN_ANOMALY":242.3609,"EPHEMERIS_TYPE":0,"CLASSIFICATION_TYPE":"U","NORAD_CAT_ID":45455,"ELEMENT_SET_NO":999,"REV_AT_EPOCH":28953,"BSTAR":0.0015646674,"MEAN_MOTION_DOT":5.67e-6,"MEAN_MOTION_DDOT":0},{"OBJECT_NAME":"ARIANE 42P DEB","OBJECT_ID":"1992-052E","EPOCH":"2026-03-09T08:15:40.954464","MEAN_MOTION":12.88531167,"ECCENTRICITY":0.01591767,"INCLINATION":66.0048,"RA_OF_ASC_NODE":81.7894,"ARG_OF_PERICENTER":339.1306,"MEAN_ANOMALY":20.3262,"EPHEMERIS_TYPE":0,"CLASSIFICATION_TYPE":"U","NORAD_CAT_ID":44507,"ELEMENT_SET_NO":999,"REV_AT_EPOCH":30802,"BSTAR":0.0072948164,"MEAN_MOTION_DOT":1.913e-5,"MEAN_MOTION_DDOT":0}]
